NORAD_CAT_ID,OBJECT_NAME,OBJECT_TYPE,EPOCH,MEAN_MOTION,ECCENTRICITY,INCLINATION,RA_OF_ASC_NODE,ARG_OF_PERICENTER,MEAN_ANOMALY,BSTAR,MEAN_MOTION_DOT,MEAN_MOTION_DDOT,TLE_LINE0,TLE_LINE1,TLE_LINE2,SEMIMAJOR_AXIS,PERIOD,APOGEE,PERIGEE,DECAYED
50194.0,STARLINK-3269,PAYLOAD,2022-04-07 22:00:00,15.16883246,0.0001460999999999,53.2173,186.7423,60.8793,220.4845,-0.03911,-0.0072596,0.0,0 STARLINK-3269,1 50194U 21125AQ  22097.91667824 -.00725960  00000-0 -39110-1 0  9999,2 50194  53.2173 186.7423 0001461  60.8793 220.4845 15.16883246  3639,6893.404,94.931,516.276,514.262,0.0
50194.0,STARLINK-3269,PAYLOAD,2022-04-08 14:00:03,15.15862072,0.0001735,53.2175,183.7152,42.0611,280.7114,-0.040122,-0.00723463,0.0,0 STARLINK-3269,1 50194U 21125AQ  22098.58336806 -.00723463  00000-0 -40122-1 0  9997,2 50194  53.2175 183.7152 0001735  42.0611 280.7114 15.15862072  3644,6896.5,94.995,519.561,517.168,0.0
50194.0,STARLINK-3269,PAYLOAD,2022-04-08 22:00:00,15.15353171,0.0001378,53.2174,182.2018,57.073,285.2958,-0.040853,-0.00725804,0.0,0 STARLINK-3269,1 50194U 21125AQ  22098.91667824 -.00725804  00000-0 -40853-1 0  9993,2 50194  53.2174 182.2018 0001378  57.0730 285.2958 15.15353171 20256,6898.044,95.027,520.859,518.9580000000002,0.0
50194.0,STARLINK-3269,PAYLOAD,2022-04-09 14:00:01,15.14332672,0.0001786999999999,53.2175,179.1821,38.1987,341.7753,-0.041975,-0.00724547,0.0,0 STARLINK-3269,1 50194U 21125AQ  22099.58334491 -.00724547  00000-0 -41975-1 0  9997,2 50194  53.2175 179.1821 0001787  38.1987 341.7753 15.14332672  3649,6901.142,95.091,524.24,521.774,0.0
50194.0,STARLINK-3269,PAYLOAD,2022-04-09 22:00:00,15.13822548,0.0001450999999999,53.2175,177.672,51.5899,346.2689,-0.042591,-0.00724595,0.0,0 STARLINK-3269,1 50194U 21125AQ  22099.91667824 -.00724595  00000-0 -42591-1 0  9991,2 50194  53.2175 177.6720 0001451  51.5899 346.2689 15.13822548  3642,6902.693,95.123,525.559,523.556,0.0
50194.0,STARLINK-3269,PAYLOAD,2022-04-10 06:00:02,15.13310999,0.0001757,53.2176,176.1641,38.9512,16.2421,-0.042982,-0.00721052,0.0,0 STARLINK-3269,1 50194U 21125AQ  22100.25002315 -.00721052  00000-0 -42982-1 0  9998,2 50194  53.2176 176.1641 0001757  38.9512  16.2421 15.13310999 20468,6904.248000000001,95.156,527.326,524.9,0.0
50194.0,STARLINK-3269,PAYLOAD,2022-04-10 14:00:01,15.12802095,0.0001685,53.2176,174.6595,44.3048,27.4825,-0.043773,-0.00723675,0.0,0 STARLINK-3269,1 50194U 21125AQ  22100.58334491 -.00723675  00000-0 -43773-1 0  9999,2 50194  53.2176 174.6595 0001685  44.3048  27.4825 15.12802095  3649,6905.795999999999,95.188,528.825,526.498,0.0
50194.0,STARLINK-3269,PAYLOAD,2022-04-10 22:00:00,15.12291912,0.0001599,53.2175,173.1529,47.0177,40.816,-0.044372,-0.00723171,0.0,0 STARLINK-3269,1 50194U 21125AQ  22100.91667824 -.00723171  00000-0 -44372-1 0  9992,2 50194  53.2175 173.1529 0001599  47.0177  40.8160 15.12291912  3658,6907.349,95.22,530.319,528.11,0.0
50194.0,STARLINK-3269,PAYLOAD,2022-04-11 06:00:00,15.11781197,0.0001715,53.2176,171.6487,44.4566,58.81,-0.044895,-0.00721444,0.0,0 STARLINK-3269,1 50194U 21125AQ  22101.25001157 -.00721444  00000-0 -44895-1 0  9992,2 50194  53.2176 171.6487 0001715  44.4566  58.8100 15.11781197 20614,6908.905,95.252,531.955,529.585,0.0
50194.0,STARLINK-3269,PAYLOAD,2022-04-11 14:00:01,15.11270835,0.000182,53.2176,170.1476,42.24800000000001,75.8378,-0.045544,-0.00721523,0.0,0 STARLINK-3269,1 50194U 21125AQ  22101.58334491 -.00721523  00000-0 -45544-1 0  9998,2 50194  53.2176 170.1476 0001820  42.2480  75.8378 15.11270835  3646,6910.46,95.284,533.5830000000002,531.068,0.0
50194.0,STARLINK-3269,PAYLOAD,2022-04-11 22:00:00,15.1076145,0.0001656,53.2175,168.6445,48.5407,83.7526,-0.046227,-0.00721976,0.0,0 STARLINK-3269,1 50194U 21125AQ  22101.91667824 -.00721976  00000-0 -46227-1 0  9995,2 50194  53.2175 168.6445 0001656  48.5407  83.7526 15.10761450  3637,6912.014,95.316,535.023,532.734,0.0
50194.0,STARLINK-3269,PAYLOAD,2022-04-12 06:00:02,15.10251197,0.000174,53.2177,167.1439,47.5031,98.4477,-0.046849,-0.00721444,0.0,0 STARLINK-3269,1 50194U 21125AQ  22102.25002315 -.00721444  00000-0 -46849-1 0  9991,2 50194  53.2177 167.1439 0001740  47.5031  98.4477 15.10251197 20765,6913.57,95.348,536.638,534.232,0.0
50194.0,STARLINK-3269,PAYLOAD,2022-04-12 14:00:01,15.09739748,0.0001724,53.2176,165.6463,49.5506,109.3183,-0.047391,-0.00719655,0.0,0 STARLINK-3269,1 50194U 21125AQ  22102.58334491 -.00719655  00000-0 -47391-1 0  9994,2 50194  53.2176 165.6463 0001724  49.5506 109.3183 15.09739748  3651,6915.132,95.381,538.189,535.804,0.0
50194.0,STARLINK-3269,PAYLOAD,2022-04-12 22:00:00,15.09032636,0.0001643,53.217,164.1481,41.1378,130.1623,-0.017146,-0.00264685,0.0,0 STARLINK-3269,1 50194U 21125AQ  22102.91667824 -.00264685  00000-0 -17146-1 0  9993,2 50194  53.2170 164.1481 0001643  41.1378 130.1623 15.09032636  3602,6917.292,95.425,540.293,538.02,0.0
50194.0,STARLINK-3269,PAYLOAD,2022-04-13 04:00:00,15.08836723,0.0001692,53.2175,163.0236,46.9126,43.2017,5.433e-05,5.77e-06,0.0,0 STARLINK-3269,1 50194U 21125AQ  22103.16667824  .00000577  00000-0  54330-4 0  9996,2 50194  53.2175 163.0236 0001692  46.9126  43.2017 15.08836723 20902,6917.89,95.438,540.9259999999998,538.585,0.0
50194.0,STARLINK-3269,PAYLOAD,2022-04-13 14:00:03,15.08821842,0.0001824,53.2137,161.1619,45.7734,148.9817,0.00343,0.00054697,0.0,0 STARLINK-3269,1 50194U 21125AQ  22103.58336806  .00054697  00000-0  34300-2 0  9990,2 50194  53.2137 161.1619 0001824  45.7734 148.9817 15.08821842  3608,6917.936,95.439,541.063,538.539,0.0
50194.0,STARLINK-3269,PAYLOAD,2022-04-13 22:00:00,15.08849869,0.0001688,53.2137,159.6638,49.3488,156.8814,0.00083564,0.0001304,0.0,0 STARLINK-3269,1 50194U 21125AQ  22103.91667824  .00013040  00000-0  83564-3 0  9998,2 50194  53.2137 159.6638 0001688  49.3488 156.8814 15.08849869 21014,6917.85,95.437,540.883,538.547,0.0
50194.0,STARLINK-3269,PAYLOAD,2022-04-14 14:00:01,15.08853486,0.0001877,53.2137,156.6726,44.7338,184.7264,-0.00014659,-2.621e-05,0.0,0 STARLINK-3269,1 50194U 21125AQ  22104.58334491 -.00002621  00000-0 -14659-3 0  9997,2 50194  53.2137 156.6726 0001877  44.7338 184.7264 15.08853486  3639,6917.839,95.437,541.003,538.406,0.0
50194.0,STARLINK-3269,PAYLOAD,2022-04-14 22:00:00,15.08836042,0.0001742,53.2137,155.1742,48.0161,193.0703,-0.0012728,-0.00020486,0.0,0 STARLINK-3269,1 50194U 21125AQ  22104.91667824 -.00020486  00000-0 -12728-2 0  9996,2 50194  53.2137 155.1742 0001742  48.0161 193.0703 15.08836042 21161,6917.892,95.438,540.9630000000002,538.552,0.0
50194.0,STARLINK-3269,PAYLOAD,2022-04-15 12:50:02,15.08840629,0.0001786999999999,53.2146,152.3985,50.4617,309.6533,-3.4566e-05,-8.38e-06,0.0,0 STARLINK-3269,1 50194U 21125AQ  22105.53474602 -.00000838  00000-0 -34566-4 0  9990,2 50194  53.2146 152.3985 0001787  50.4617 309.6533 15.08840629 21781,6917.878000000002,95.438,540.98,538.507,0.0
50194.0,STARLINK-3269,PAYLOAD,2022-04-15 14:00:01,15.08819704,0.0002001,53.2137,152.183,45.3844,218.8864,0.0036999,0.00059057,0.0,0 STARLINK-3269,1 50194U 21125AQ  22105.58334491  .00059057  00000-0  36999-2 0  9991,2 50194  53.2137 152.1830 0002001  45.3844 218.8864 15.08819704 21264,6917.941999999999,95.439,541.192,538.423,0.0
50194.0,STARLINK-3269,PAYLOAD,2022-04-15 22:00:00,15.08842309,0.000186,53.2138,150.6846,50.1995,225.6698,0.0011814,0.00018565,0.0,0 STARLINK-3269,1 50194U 21125AQ  22105.91667824  .00018565  00000-0  11814-2 0  9995,2 50194  53.2138 150.6846 0001860  50.1995 225.6698 15.08842309  3615,6917.873000000001,95.437,541.025,538.452,0.0
50194.0,STARLINK-3269,PAYLOAD,2022-04-16 06:00:00,15.08870088,0.0001938,53.2138,149.1886,51.6374,235.8286,-0.0048604999999999,-0.00076883,0.0,0 STARLINK-3269,1 50194U 21125AQ  22106.25001157 -.00076883  00000-0 -48605-2 0  9991,2 50194  53.2138 149.1886 0001938  51.6374 235.8286 15.08870088 21368,6917.788000000001,95.436,540.994,538.313,0.0
50194.0,STARLINK-3269,PAYLOAD,2022-04-16 14:00:01,15.08790285,0.0002039,53.2135,147.6933,45.6681,253.3946,0.0024884,0.00039484,0.0,0 STARLINK-3269,1 50194U 21125AQ  22106.58334491  .00039484  00000-0  24884-2 0  9994,2 50194  53.2135 147.6933 0002039  45.6681 253.3946 15.08790285  3636,6918.031999999997,95.441,541.308,538.487,0.0
50194.0,STARLINK-3269,PAYLOAD,2022-04-16 22:00:01,15.08792474,0.0001871,53.2136,146.195,50.88,259.8042,0.0020908,0.00033101,0.0,0 STARLINK-3269,1 50194U 21125AQ  22106.91668981  .00033101  00000-0  20908-2 0  9998,2 50194  53.2136 146.1950 0001871  50.8800 259.8042 15.08792474 21465,6918.026,95.441,541.185,538.596,0.0
50194.0,STARLINK-3269,PAYLOAD,2022-04-17 14:00:01,15.08805275,0.0002039,53.2132,143.2037,46.1953,287.5498,0.0023466,0.00037221,0.0,0 STARLINK-3269,1 50194U 21125AQ  22107.58334491  .00037221  00000-0  23466-2 0  9997,2 50194  53.2132 143.2037 0002039  46.1953 287.5498 15.08805275 21567,6917.986999999999,95.44,541.262,538.441,0.0
50194.0,STARLINK-3269,PAYLOAD,2022-04-17 22:00:00,15.08803852,0.0001855,53.2134,141.7054,52.1966,293.1263,0.0025349,0.00040246,0.0,0 STARLINK-3269,1 50194U 21125AQ  22107.91667824  .00040246  00000-0  25349-2 0  9996,2 50194  53.2134 141.7054 0001855  52.1966 293.1263 15.08803852  3592,6917.991,95.44,541.139,538.573,0.0
50194.0,STARLINK-3269,PAYLOAD,2022-04-18 08:00:01,15.088402800000004,0.0002006,53.2132,139.8362,50.3406,39.4483,-0.0012924,-0.00020798,0.0,0 STARLINK-3269,1 50194U 21125AQ  22108.33334491 -.00020798  00000-0 -12924-2 0  9991,2 50194  53.2132 139.8362 0002006  50.3406  39.4483 15.08840280 21689,6917.88,95.438,541.132,538.357,0.0
50194.0,STARLINK-3269,PAYLOAD,2022-04-18 14:00:01,15.08822813,0.0002035,53.2129,138.7141,47.213,321.2671,0.0017686,0.00027958,0.0,0 STARLINK-3269,1 50194U 21125AQ  22108.58334491  .00027958  00000-0  17686-2 0  9991,2 50194  53.2129 138.7141 0002035  47.2130 321.2671 15.08822813  3626,6917.933000000001,95.439,541.206,538.39,0.0
